{"type": "FeatureCollection", "features": [ {"type": "Feature", "properties": {"norad_id": 42738, "name": "QZS-2 (QZSS/PRN 194)", "group": "gnss", "lat": 39.644161425198924, "lon": -28.890798271830093, "alt_km": 38954.7978224755, "timestamp": "2025-12-15T07:02:37.861553+00:00", "meta": {"OBJECT_NAME": "QZS-2 (QZSS/PRN 194)", "OBJECT_ID": "2017-028A", "EPOCH": "2025-12-14T14:03:05.064192", "MEAN_MOTION": 1.0028256, "ECCENTRICITY": 0.07572259, "INCLINATION": 39.7111, "RA_OF_ASC_NODE": 245.8564, "ARG_OF_PERICENTER": 269.4953, "MEAN_ANOMALY": 280.8017, "EPHEMERIS_TYPE": 0, "CLASSIFICATION_TYPE": "U", "NORAD_CAT_ID": 42738, "ELEMENT_SET_NO": 999, "REV_AT_EPOCH": 577, "BSTAR": 0, "MEAN_MOTION_DOT": -1.69e-06, "MEAN_MOTION_DDOT": 0}, "tle": {"line1": "1 42738U 17028A   25348.58547528 -.00000169  00000+0  00000+0 0  9993", "line2": "2 42738  39.7111 245.8564 0757225 269.4953 280.8017  1.00282560  5777"}}, "geometry": {"type": "Point", "coordinates": [-28.890798271830093, 39.644161425198924]}}, {"type": "Feature", "properties": {"norad_id": 42917, "name": "QZS-3 (QZSS/PRN 199)", "group": "gnss", "lat": 0.03947808574477783, "lon": -43.07676177704575, "alt_km": 35780.699575815066, "timestamp": "2025-12-15T07:02:37.861565+00:00", "meta": {"OBJECT_NAME": "QZS-3 (QZSS/PRN 199)", "OBJECT_ID": "2017-048A", "EPOCH": "2025-12-14T22:35:01.034016", "MEAN_MOTION": 1.00271189, "ECCENTRICITY": 0.00018884, "INCLINATION": 0.0594, "RA_OF_ASC_NODE": 186.6647, "ARG_OF_PERICENTER": 84.8312, "MEAN_ANOMALY": 278.1725, "EPHEMERIS_TYPE": 0, "CLASSIFICATION_TYPE": "U", "NORAD_CAT_ID": 42917, "ELEMENT_SET_NO": 999, "REV_AT_EPOCH": 3041, "BSTAR": 0, "MEAN_MOTION_DOT": -3.28e-06, "MEAN_MOTION_DDOT": 0}, "tle": {"line1": "1 42917U 17048A   25348.94098419 -.00000328  00000+0  00000+0 0  9991", "line2": "2 42917   0.0594 186.6647 0001888  84.8312 278.1725  1.00271189 30411"}}, "geometry": {"type": "Point", "coordinates": [-43.07676177704575, 0.03947808574477783]}}, {"type": "Feature", "properties": {"norad_id": 42939, "name": "COSMOS 2522 (752)", "group": "gnss", "lat": 63.99021111450703, "lon": -67.30969697233269, "alt_km": 19134.40819852754, "timestamp": "2025-12-15T07:02:37.861577+00:00", "meta": {"OBJECT_NAME": "COSMOS 2522 (752)", "OBJECT_ID": "2017-055A", "EPOCH": "2025-12-10T22:48:12.074400", "MEAN_MOTION": 2.1310181, "ECCENTRICITY": 0.00064932, "INCLINATION": 64.076, "RA_OF_ASC_NODE": 198.29, "ARG_OF_PERICENTER": 225.3551, "MEAN_ANOMALY": 134.6611, "EPHEMERIS_TYPE": 0, "CLASSIFICATION_TYPE": "U", "NORAD_CAT_ID": 42939, "ELEMENT_SET_NO": 999, "REV_AT_EPOCH": 6396, "BSTAR": 0, "MEAN_MOTION_DOT": 5.1e-07, "MEAN_MOTION_DDOT": 0}, "tle": {"line1": "1 42939U 17055A   25344.95013975  .00000051  00000+0  00000+0 0  9996", "line2": "2 42939  64.0760 198.2900 0006493 225.3551 134.6611  2.13101810 63969"}}, "geometry": {"type": "Point", "coordinates": [-67.30969697233269, 63.99021111450703]}}, {"type": "Feature", "properties": {"norad_id": 42965, "name": "QZS-4 (QZSS/PRN 195)", "group": "gnss", "lat": -7.3736280362844395, "lon": -22.977090565631677, "alt_km": 34849.75181811774, "timestamp": "2025-12-15T07:02:37.861589+00:00", "meta": {"OBJECT_NAME": "QZS-4 (QZSS/PRN 195)", "OBJECT_ID": "2017-062A", "EPOCH": "2025-12-14T20:52:33.348288", "MEAN_MOTION": 1.00252559, "ECCENTRICITY": 0.07516983, "INCLINATION": 40.2247, "RA_OF_ASC_NODE": 345.8431, "ARG_OF_PERICENTER": 271.6027, "MEAN_ANOMALY": 275.7066, "EPHEMERIS_TYPE": 0, "CLASSIFICATION_TYPE": "U", "NORAD_CAT_ID": 42965, "ELEMENT_SET_NO": 999, "REV_AT_EPOCH": 2995, "BSTAR": 0, "MEAN_MOTION_DOT": -3.55e-06, "MEAN_MOTION_DDOT": 0}, "tle": {"line1": "1 42965U 17062A   25348.86983042 -.00000355  00000+0  00000+0 0  9996", "line2": "2 42965  40.2247 345.8431 0751698 271.6027 275.7066  1.00252559 29953"}}, "geometry": {"type": "Point", "coordinates": [-22.977090565631677, -7.3736280362844395]}}, {"type": "Feature", "properties": {"norad_id": 43001, "name": "BEIDOU-3 M1 (C19)", "group": "gnss", "lat": -36.290336403703954, "lon": -81.82433928955582, "alt_km": 21527.210233941434, "timestamp": "2025-12-15T07:02:37.861601+00:00", "meta": {"OBJECT_NAME": "BEIDOU-3 M1 (C19)", "OBJECT_ID": "2017-069A", "EPOCH": "2025-12-13T08:19:00.908256", "MEAN_MOTION": 1.86231197, "ECCENTRICITY": 0.00092543, "INCLINATION": 56.5278, "RA_OF_ASC_NODE": 69.2133, "ARG_OF_PERICENTER": 303.3207, "MEAN_ANOMALY": 56.6091, "EPHEMERIS_TYPE": 0, "CLASSIFICATION_TYPE": "U", "NORAD_CAT_ID": 43001, "ELEMENT_SET_NO": 999, "REV_AT_EPOCH": 5514, "BSTAR": 0, "MEAN_MOTION_DOT": -7.8e-07, "MEAN_MOTION_DDOT": 0}, "tle": {"line1": "1 43001U 17069A   25347.34653829 -.00000078  00000+0  00000+0 0  9996", "line2": "2 43001  56.5278  69.2133 0009254 303.3207  56.6091  1.86231197 55145"}}, "geometry": {"type": "Point", "coordinates": [-81.82433928955582, -36.290336403703954]}}, {"type": "Feature", "properties": {"norad_id": 43002, "name": "BEIDOU-3 M2 (C20)", "group": "gnss", "lat": -56.395276938687516, "lon": -27.00636125440145, "alt_km": 21526.572793045765, "timestamp": "2025-12-15T07:02:37.861612+00:00", "meta": {"OBJECT_NAME": "BEIDOU-3 M2 (C20)", "OBJECT_ID": "2017-069B", "EPOCH": "2025-12-12T17:57:03.193632", "MEAN_MOTION": 1.86230645, "ECCENTRICITY": 0.00063664, "INCLINATION": 56.5266, "RA_OF_ASC_NODE": 69.2696, "ARG_OF_PERICENTER": 331.453, "MEAN_ANOMALY": 28.5312, "EPHEMERIS_TYPE": 0, "CLASSIFICATION_TYPE": "U", "NORAD_CAT_ID": 43002, "ELEMENT_SET_NO": 999, "REV_AT_EPOCH": 5512, "BSTAR": 0, "MEAN_MOTION_DOT": -7.4e-07, "MEAN_MOTION_DDOT": 0}, "tle": {"line1": "1 43002U 17069B   25346.74795363 -.00000074  00000+0  00000+0 0  9996", "line2": "2 43002  56.5266  69.2696 0006366 331.4530  28.5312  1.86230645 55128"}}, "geometry": {"type": "Point", "coordinates": [-27.00636125440145, -56.395276938687516]}}, {"type": "Feature", "properties": {"norad_id": 43055, "name": "GSAT0215 (GALILEO 19)", "group": "gnss", "lat": -52.411690331616384, "lon": 161.75808307331008, "alt_km": 23226.381941737458, "timestamp": "2025-12-15T07:02:37.861626+00:00", "meta": {"OBJECT_NAME": "GSAT0215 (GALILEO 19)", "OBJECT_ID": "2017-079A", "EPOCH": "2025-12-11T21:30:24.060384", "MEAN_MOTION": 1.704739, "ECCENTRICITY": 0.00012658, "INCLINATION": 55.1303, "RA_OF_ASC_NODE": 226.661, "ARG_OF_PERICENTER": 350.6161, "MEAN_ANOMALY": 9.46, "EPHEMERIS_TYPE": 0, "CLASSIFICATION_TYPE": "U", "NORAD_CAT_ID": 43055, "ELEMENT_SET_NO": 999, "REV_AT_EPOCH": 4979, "BSTAR": 0, "MEAN_MOTION_DOT": 1.3e-07, "MEAN_MOTION_DDOT": 0}, "tle": {"line1": "1 43055U 17079A   25345.89611181  .00000013  00000+0  00000+0 0  9997", "line2": "2 43055  55.1303 226.6610 0001265 350.6161   9.4600  1.70473900 49794"}}, "geometry": {"type": "Point", "coordinates": [161.75808307331008, -52.411690331616384]}}, {"type": "Feature", "properties": {"norad_id": 43056, "name": "GSAT0216 (GALILEO 20)", "group": "gnss", "lat": 51.955557886088805, "lon": -16.321948730047534, "alt_km": 23221.26674290379, "timestamp": "2025-12-15T07:02:37.861640+00:00", "meta": {"OBJECT_NAME": "GSAT0216 (GALILEO 20)", "OBJECT_ID": "2017-079B", "EPOCH": "2025-12-13T08:39:13.176288", "MEAN_MOTION": 1.70474029, "ECCENTRICITY": 0.00023036, "INCLINATION": 55.1302, "RA_OF_ASC_NODE": 226.6206, "ARG_OF_PERICENTER": 326.735, "MEAN_ANOMALY": 33.3311, "EPHEMERIS_TYPE": 0, "CLASSIFICATION_TYPE": "U", "NORAD_CAT_ID": 43056, "ELEMENT_SET_NO": 999, "REV_AT_EPOCH": 4983, "BSTAR": 0, "MEAN_MOTION_DOT": 2.3e-07, "MEAN_MOTION_DDOT": 0}, "tle": {"line1": "1 43056U 17079B   25347.36056917  .00000023  00000+0  00000+0 0  9993", "line2": "2 43056  55.1302 226.6206 0002303 326.7350  33.3311  1.70474029 49836"}}, "geometry": {"type": "Point", "coordinates": [-16.321948730047534, 51.955557886088805]}}, {"type": "Feature", "properties": {"norad_id": 43057, "name": "GSAT0217 (GALILEO 21)", "group": "gnss", "lat": -23.59052630356204, "lon": -151.1384561503642, "alt_km": 23217.337289996627, "timestamp": "2025-12-15T07:02:37.861652+00:00", "meta": {"OBJECT_NAME": "GSAT0217 (GALILEO 21)", "OBJECT_ID": "2017-079C", "EPOCH": "2025-12-13T13:57:02.142720", "MEAN_MOTION": 1.70474015, "ECCENTRICITY": 0.00027963, "INCLINATION": 55.1281, "RA_OF_ASC_NODE": 226.6125, "ARG_OF_PERICENTER": 346.0332, "MEAN_ANOMALY": 14.0404, "EPHEMERIS_TYPE": 0, "CLASSIFICATION_TYPE": "U", "NORAD_CAT_ID": 43057, "ELEMENT_SET_NO": 999, "REV_AT_EPOCH": 4982, "BSTAR": 0, "MEAN_MOTION_DOT": 2.5e-07, "MEAN_MOTION_DDOT": 0}, "tle": {"line1": "1 43057U 17079C   25347.58127480  .00000025  00000+0  00000+0 0  9994", "line2": "2 43057  55.1281 226.6125 0002796 346.0332  14.0404  1.70474015 49827"}}, "geometry": {"type": "Point", "coordinates": [-151.1384561503642, -23.59052630356204]}}, {"type": "Feature", "properties": {"norad_id": 43058, "name": "GSAT0218 (GALILEO 22)", "group": "gnss", "lat": -12.883270998128749, "lon": 55.73941708363082, "alt_km": 23227.038462373468, "timestamp": "2025-12-15T07:02:37.861663+00:00", "meta": {"OBJECT_NAME": "GSAT0218 (GALILEO 22)", "OBJECT_ID": "2017-079D", "EPOCH": "2025-12-12T15:04:31.769472", "MEAN_MOTION": 1.70474063, "ECCENTRICITY": 0.00028411, "INCLINATION": 55.1287, "RA_OF_ASC_NODE": 226.6365, "ARG_OF_PERICENTER": 306.3289, "MEAN_ANOMALY": 53.7237, "EPHEMERIS_TYPE": 0, "CLASSIFICATION_TYPE": "U", "NORAD_CAT_ID": 43058, "ELEMENT_SET_NO": 999, "REV_AT_EPOCH": 4983, "BSTAR": 0, "MEAN_MOTION_DOT": 1.7e-07, "MEAN_MOTION_DDOT": 0}, "tle": {"line1": "1 43058U 17079D   25346.62814548  .00000017  00000+0  00000+0 0  9998", "line2": "2 43058  55.1287 226.6365 0002841 306.3289  53.7237  1.70474063 49839"}}, "geometry": {"type": "Point", "coordinates": [55.73941708363082, -12.883270998128749]}}]}